     3.05           NAVIGATION DATA     M:Mixed             RINEX VERSION / TYPE
SthRinex2310261332  SouthGnss           11-Oct-24 07:05     PGM / RUN BY / DATE
     1.583e-08   2.235e-08  -1.192e-07  -1.192e-07          ION ALPHA 
     1.167e+05   1.638e+05  -1.311e+05  -4.588e+05          ION BETA 
    18                                                      LEAP SECONDS        
                                                            END OF HEADER       
C27 2023  6 19  1  0 00 1.571964239702E-04 5.484501741648E-12 0.000000000000E+00
     1.000000000000E+00 1.092187500000E+02 3.759799467882E-09-1.384710989308E+00
     5.599111318588E-06 7.308357162401E-04 7.827766239643E-07 5.282619621277E+03
     9.000000000000E+04-9.313225746155E-09 1.294220699338E+00 9.313225746155E-09
     9.625003207560E-01 3.442656250000E+02 1.326579835752E+00-7.061365562791E-09
     3.214419607765E-10 0.000000000000E+00 9.110000000000E+02 0.000000000000E+00
     0.000000000000E+00 0.000000000000E+00-3.500000067547E-09 0.000000000000E+00
     9.016400000000E+04 1.000000000000E+00 0.000000000000E+00 0.000000000000E+00
G03 2023  6 19  2  0 00-2.653491683304E-04 1.386979420204E-11 0.000000000000E+00
     7.300000000000E+01-1.370937500000E+02 3.982308736286E-09-5.407353974912E-01
    -6.960704922676E-06 4.951624316163E-03 8.482486009598E-06 5.153655370712E+03
     9.360000000000E+04 7.450580596924E-09 2.925192547725E+00 6.705522537231E-08
     9.797201378248E-01 2.310625000000E+02 1.041261528974E+00-7.745679781510E-09
     8.286059433349E-11 0.000000000000E+00 2.267000000000E+03 0.000000000000E+00
     0.000000000000E+00 0.000000000000E+00 1.862645149231E-09 7.300000000000E+01
     8.986800000000E+04 0.000000000000E+00 0.000000000000E+00 0.000000000000E+00
R17 2023  6 19  1 45 00 6.402842700481E-04 2.728484105319E-12 6.720000000000E+03
    -6.241050781250E+03-1.670270919800E+00-4.656612873077E-09 0.000000000000E+00
     9.498453125000E+03-2.647403717041E+00 0.000000000000E+00 4.000000000000E+00
     2.284112988281E+04 6.407613754272E-01 0.000000000000E+00 0.000000000000E+00
C01 2023  6 19  1  0 00 8.874633349478E-04-1.445066288852E-12 0.000000000000E+00
     1.000000000000E+00-1.370312500000E+01 1.857577375554E-09-2.461302049876E+00
    -4.135072231293E-07 4.703591112047E-04 2.533942461014E-05 6.493351789474E+03
     9.000000000000E+04-3.539025783539E-08-2.959809025252E+00 9.778887033463E-08
     1.165328109050E-01-7.791093750000E+02 1.939098017936E+00-6.371693978058E-10
     1.072544675791E-09 0.000000000000E+00 9.110000000000E+02 0.000000000000E+00
     0.000000000000E+00 0.000000000000E+00-5.099999977887E-09 0.000000000000E+00
     9.001400000000E+04 0.000000000000E+00 0.000000000000E+00 0.000000000000E+00
G21 2023  6 19  2  0 00 1.529860310256E-04-3.410605131648E-13 0.000000000000E+00
     4.100000000000E+01-8.250000000000E+00 4.558047003810E-09 2.783376989704E+00
    -5.159527063370E-07 2.465491078328E-02-1.378357410431E-06 5.153612148285E+03
     9.360000000000E+04 9.126961231232E-08 1.790507885246E+00 4.209578037262E-07
     9.615514311281E-01 4.037812500000E+02-7.475794591366E-01-8.141053393266E-09
    -2.285809498855E-11 0.000000000000E+00 2.267000000000E+03 0.000000000000E+00
     0.000000000000E+00 0.000000000000E+00-1.024454832077E-08 4.100000000000E+01
     8.986200000000E+04 0.000000000000E+00 0.000000000000E+00 0.000000000000E+00
R18 2023  6 19  1 45 00 8.730497211218E-05 9.094947017729E-13 6.720000000000E+03
     5.400494140625E+03-8.907098770142E-01-2.793967723846E-09 0.000000000000E+00
     2.044575634766E+04-1.747461318970E+00-9.313225746155E-10-3.000000000000E+00
     1.423596826172E+04 2.853262901306E+00-0.000000000000E+00 0.000000000000E+00
C28 2023  6 19  1  0 00 1.168189337477E-04 4.373390538603E-12 0.000000000000E+00
     1.000000000000E+00 1.173437500000E+02 3.690510867448E-09-2.279004232165E+00
     5.819369107485E-06 8.942279964685E-05 4.507601261139E-07 5.282637701035E+03
     9.000000000000E+04-2.281740307808E-08 1.294000335599E+00 1.303851604462E-08
     9.623798830993E-01 3.528125000000E+02 2.951264354818E+00-7.048865042094E-09
     3.192990143713E-10 0.000000000000E+00 9.110000000000E+02 0.000000000000E+00
     0.000000000000E+00 0.000000000000E+00-3.600000075821E-09 0.000000000000E+00
     9.001400000000E+04 1.000000000000E+00 0.000000000000E+00 0.000000000000E+00
G07 2023  6 19  2  0 00 1.485529355705E-04-1.023181539495E-11 0.000000000000E+00
     2.000000000000E+01-3.031250000000E+00 5.323078870458E-09-2.455604256060E-02
    -2.607703208923E-08 1.743520714808E-02 5.058944225311E-06 5.153730329514E+03
     9.360000000000E+04-6.519258022308E-08-1.262403815455E+00 1.993030309677E-07
     9.498790286743E-01 2.746562500000E+02-2.187548183660E+00-8.520712064716E-09
    -2.932264997750E-10 0.000000000000E+00 2.267000000000E+03 0.000000000000E+00
     0.000000000000E+00 0.000000000000E+00-1.117587089539E-08 2.000000000000E+01
     8.986800000000E+04 0.000000000000E+00 0.000000000000E+00 0.000000000000E+00
R01 2023  6 19  1 45 00 5.969684571028E-05 0.000000000000E+00 6.720000000000E+03
    -1.689746728516E+04 2.429321289063E+00-3.725290298462E-09 0.000000000000E+00
    -7.075086425781E+03-1.054143905640E-01 2.793967723846E-09 1.000000000000E+00
     1.774608496094E+04 2.272942543030E+00 9.313225746155E-10 0.000000000000E+00
C02 2023  6 19  1  0 00 3.960853209719E-04-1.425881634987E-10 0.000000000000E+00
     1.000000000000E+00-4.737500000000E+01 2.647253125861E-09-6.078270617969E-01
    -1.475214958191E-06 1.009900472127E-03 2.284627407789E-05 6.493400859833E+03
     9.000000000000E+04 2.221204340458E-07-2.957456796347E+00 2.142041921616E-07
     1.179267509340E-01-6.967500000000E+02-9.715389498684E-01-1.455417766849E-09
     9.314673707834E-10 0.000000000000E+00 9.110000000000E+02 0.000000000000E+00
     0.000000000000E+00 0.000000000000E+00 1.700000029636E-09 0.000000000000E+00
     9.001400000000E+04 0.000000000000E+00 0.000000000000E+00 0.000000000000E+00
G17 2023  6 19  2  0 00 7.188105955720E-04 1.250555214938E-12 0.000000000000E+00
     2.500000000000E+01 1.466875000000E+02 3.755156417338E-09 2.747303277535E+00
     7.621943950653E-06 1.350364112295E-02 5.349516868591E-06 5.153789604187E+03
     9.360000000000E+04 1.080334186554E-07 8.911399229376E-01 1.862645149231E-09
     9.740027321291E-01 2.793437500000E+02-1.405227556637E+00-7.581744381514E-09
     1.857220217820E-10 0.000000000000E+00 2.267000000000E+03 0.000000000000E+00
     0.000000000000E+00 0.000000000000E+00-1.117587089539E-08 2.500000000000E+01
     8.986800000000E+04 0.000000000000E+00 0.000000000000E+00 0.000000000000E+00
R02 2023  6 19  1 45 00-2.268888056278E-05 0.000000000000E+00 6.720000000000E+03
    -2.549574707031E+04 2.022562026978E-01-3.725290298462E-09 0.000000000000E+00
     5.732958984375E+02 1.793022155762E-01 1.862645149231E-09-4.000000000000E+00
     1.459800292969E+03 3.568747520447E+00 2.793967723846E-09 0.000000000000E+00
C03 2023  6 19  1  0 00 9.066252969205E-04-1.590549913999E-11 0.000000000000E+00
     1.000000000000E+00-1.562656250000E+02 1.744358373814E-09-4.563197841449E-01
    -4.939734935760E-06 8.346805116162E-04 2.403324469924E-05 6.493395889282E+03
     9.000000000000E+04-6.938353180885E-08-3.016792428874E+00 2.644956111908E-07
     1.127650756323E-01-7.342500000000E+02-6.013924839195E-01-6.296690853877E-10
     1.017542384725E-09 0.000000000000E+00 9.110000000000E+02 0.000000000000E+00
     0.000000000000E+00 0.000000000000E+00 2.299999968258E-09 0.000000000000E+00
     9.001400000000E+04 0.000000000000E+00 0.000000000000E+00 0.000000000000E+00
G19 2023  6 19  2  0 00 3.324756398797E-04 5.115907697473E-12 0.000000000000E+00
     1.500000000000E+01 1.300625000000E+02 3.949450224740E-09-1.347953749147E+00
     6.832182407379E-06 9.484148467891E-03 5.271285772324E-06 5.153630546570E+03
     9.360000000000E+04-1.527369022369E-07 9.356663201779E-01-3.725290298462E-09
     9.730389280513E-01 2.882812500000E+02 2.328298520808E+00-7.963188841636E-09
     3.789443559820E-10 0.000000000000E+00 2.267000000000E+03 0.000000000000E+00
     0.000000000000E+00 0.000000000000E+00-1.536682248116E-08 1.500000000000E+01
     8.986800000000E+04 0.000000000000E+00 0.000000000000E+00 0.000000000000E+00
R19 2023  6 19  1 45 00-2.367645502090E-04-9.094947017729E-13 6.720000000000E+03
     1.319332421875E+04 2.424516677856E-01 0.000000000000E+00 0.000000000000E+00
     2.183219921875E+04-8.919239044189E-02-2.793967723846E-09 3.000000000000E+00
    -3.538408203125E+02 3.611074447632E+00-9.313225746155E-10 0.000000000000E+00
C04 2023  6 19  1  0 00 9.941938333213E-05 1.373967606355E-10 0.000000000000E+00
     1.000000000000E+00-3.315625000000E+01 1.340055818704E-09-2.173071314583E+00
    -1.061242073774E-06 2.575410762802E-04 2.595689147711E-05 6.493406358719E+03
     9.000000000000E+04-2.747401595116E-08-2.993077749999E+00 1.215375959873E-07
     1.004169235222E-01-7.996562500000E+02 1.955520537337E+00-8.500354073867E-11
     1.037543217840E-09 0.000000000000E+00 9.110000000000E+02 0.000000000000E+00
     0.000000000000E+00 0.000000000000E+00 6.000000052353E-09 0.000000000000E+00
     9.001400000000E+04 0.000000000000E+00 0.000000000000E+00 0.000000000000E+00
G14 2023  6 19  2  0 00 9.517697617412E-05 1.239186531166E-11 0.000000000000E+00
     2.300000000000E+02 4.300000000000E+01 4.467686097059E-09-7.719073698632E-01
     2.076849341393E-06 3.287549596280E-03 1.045316457748E-05 5.153679080963E+03
     9.360000000000E+04 1.024454832077E-07-1.867158946779E-01-1.043081283569E-07
     9.489106324967E-01 1.758437500000E+02-2.999758914422E+00-7.781752712664E-09
    -6.925288466062E-10 0.000000000000E+00 2.267000000000E+03 0.000000000000E+00
     0.000000000000E+00 0.000000000000E+00-7.916241884232E-09 7.420000000000E+02
     8.986200000000E+04 0.000000000000E+00 0.000000000000E+00 0.000000000000E+00
